*******************************************************************************
JPL/HORIZONS               196 Philomela (A879 JA)         2020-Jun-22 08:38:02
Rec #:     196 (+COV) Soln.date: 2020-Feb-22_15:20:16   # obs: 3479 (1879-2020)
 
IAU76/J2000 helio. ecliptic osc. elements (au, days, deg., period=Julian yrs):
 
  EPOCH=  2452846.5 ! 2003-Jul-26.00 (TDB)         Residual RMS= .33363
   EC= .02467278838890026  QR= 3.035369153714198   TP= 2452096.3098581093
   OM= 72.64476843211044   W=  204.698818528271    IN= 7.253910815064251
   A= 3.112154687758795    MA= 134.6739703928907   ADIST= 3.188940221803391
   PER= 5.49035            N= .179519777           ANGMOM= .030337501
   DAN= 3.18158            DDN= 3.04207            L= 277.1692681
   B= -3.0243487           MOID= 2.02060008        TP= 2001-Jul-05.8098581093
 
Asteroid physical parameters (km, seconds, rotational period in hours):
   GM= n.a.                RAD= 72.313             ROTPER= 8.334
   H= 6.5                  G= .150                 B-V= .852
                           ALBEDO= .342            STYP= S
 
ASTEROID comments: 
1: soln ref.= JPL#110, OCC=0
2: source=ORB
*******************************************************************************
 
 
*******************************************************************************
Ephemeris / WWW_USER Mon Jun 22 08:38:02 2020 Pasadena, USA      / Horizons
*******************************************************************************
Target body name: 196 Philomela (A879 JA)         {source: JPL#110}
Center body name: Solar System Barycenter (0)     {source: DE431}
Center-site name: BODY CENTER
*******************************************************************************
Start time      : A.D. 1969-Jun-28 00:00:00.0000 TDB
Stop  time      : A.D. 2071-May-04 00:00:00.0000 TDB
Step-size       : 7200 minutes
*******************************************************************************
Center geodetic : 0.00000000,0.00000000,0.0000000 {E-lon(deg),Lat(deg),Alt(km)}
Center cylindric: 0.00000000,0.00000000,0.0000000 {E-lon(deg),Dxy(km),Dz(km)}
Center radii    : (undefined)                                                  
Small perturbers: Yes                             {source: SB431-N16}
Output units    : AU-D
Output type     : GEOMETRIC cartesian states
Output format   : 2 (position and velocity)
Reference frame : Ecliptic of J2000.0
*******************************************************************************
Initial IAU76/J2000 heliocentric ecliptic osculating elements (au, days, deg.):
  EPOCH=  2452846.5 ! 2003-Jul-26.00 (TDB)         Residual RMS= .33363        
   EC= .02467278838890026  QR= 3.035369153714198   TP= 2452096.3098581093      
   OM= 72.64476843211044   W=  204.698818528271    IN= 7.253910815064251       
  Equivalent ICRF heliocentric equatorial cartesian coordinates (au, au/d):
   X= 1.854488818187809E+00  Y= 2.403454289867118E+00  Z= 9.025718130092134E-01
  VX=-7.582046185739015E-03 VY= 4.817346296186084E-03 VZ= 3.330299537743318E-03
Asteroid physical parameters (km, seconds, rotational period in hours):        
   GM= n.a.                RAD= 72.313             ROTPER= 8.334               
   H= 6.5                  G= .150                 B-V= .852                   
                           ALBEDO= .342            STYP= S                     
*******************************************************************************
            JDTDB,            Calendar Date (TDB),        delta-T,                      X,                      Y,                      Z,                     VX,                     VY,                     VZ,
******************************************************************************************************************************************************************************************************************
$$SOE
2445440.500000000, A.D. 1983-Apr-16 00:00:00.0000,      53.185634, -2.984503490427691E+00,  1.002087210156833E+00,  4.017469629646412E-01, -2.866122771613880E-03, -9.110987328568675E-03,  8.496334871169410E-06,
2445445.500000000, A.D. 1983-Apr-21 00:00:00.0000,      53.185598, -2.998488286426814E+00,  9.564191405306041E-01,  4.017430133197686E-01, -2.727670535116614E-03, -9.155894460265143E-03, -1.007852723916654E-05,
2445450.500000000, A.D. 1983-Apr-26 00:00:00.0000,      53.185548, -3.011778968986019E+00,  9.105317368333211E-01,  4.016461576923211E-01, -2.588482230706032E-03, -9.198718836358371E-03, -2.866538879610603E-05,
2445455.500000000, A.D. 1983-May-01 00:00:00.0000,      53.185487, -3.024371930485663E+00,  8.644354443544471E-01,  4.014563461381482E-01, -2.448586985062895E-03, -9.239447912013775E-03, -4.726022605427726E-05,
2445460.500000000, A.D. 1983-May-06 00:00:00.0000,      53.185417, -3.036263709517796E+00,  8.181407702079766E-01,  4.011735488691007E-01, -2.308014155707057E-03, -9.278069502953542E-03, -6.585900044218923E-05,
2445465.500000000, A.D. 1983-May-11 00:00:00.0000,      53.185337, -3.047450992033157E+00,  7.716582815190706E-01,  4.007977563258761E-01, -2.166793328103211E-03, -9.314571789701111E-03, -8.445765908186109E-05,
2445470.500000000, A.D. 1983-May-16 00:00:00.0000,      53.185249, -3.057930612473380E+00,  7.249986035893212E-01,  4.003289792481758E-01, -2.024954312619567E-03, -9.348943321885492E-03, -1.030521353469337E-04,
2445475.500000000, A.D. 1983-May-21 00:00:00.0000,      53.185150, -3.067699554887453E+00,  6.781724180402151E-01,  3.997672487419588E-01, -1.882527141270082E-03, -9.381173022675349E-03, -1.216383494636500E-04,
2445480.500000000, A.D. 1983-May-26 00:00:00.0000,      53.185042, -3.076754954031441E+00,  6.311904609339135E-01,  3.991126163436085E-01, -1.739542064294850E-03, -9.411250193425620E-03, -1.402122091429629E-04,
2445485.500000000, A.D. 1983-May-31 00:00:00.0000,      53.184926, -3.085094096450978E+00,  5.840635208702424E-01,  3.983651540809118E-01, -1.596029546712533E-03, -9.439164518540976E-03, -1.587696102173376E-04,
2445490.500000000, A.D. 1983-Jun-05 00:00:00.0000,      53.184805, -3.092714421546715E+00,  5.368024370589677E-01,  3.975249545309001E-01, -1.452020264959122E-03, -9.464906070481565E-03, -1.773064372569008E-04,
2445495.500000000, A.D. 1983-Jun-10 00:00:00.0000,      53.184679, -3.099613522623257E+00,  4.894180973669042E-01,  3.965921308746861E-01, -1.307545103652797E-03, -9.488465314805808E-03, -1.958185641531038E-04,
2445500.500000000, A.D. 1983-Jun-15 00:00:00.0000,      53.184549, -3.105789147922196E+00,  4.419214363399095E-01,  3.955668169494623E-01, -1.162635152448425E-03, -9.509833115163504E-03, -2.143018546738721E-04,
2445505.500000000, A.D. 1983-Jun-20 00:00:00.0000,      53.184413, -3.111239201639459E+00,  3.943234332001343E-01,  3.944491672977615E-01, -1.017321702898117E-03, -9.529000738195749E-03, -2.327521630050178E-04,
2445510.500000000, A.D. 1983-Jun-25 00:00:00.0000,      53.184274, -3.115961744926778E+00,  3.466351098190149E-01,  3.932393572140069E-01, -8.716362452172573E-04, -9.545959858341994E-03, -2.511653342971331E-04,
2445515.500000000, A.D. 1983-Jun-30 00:00:00.0000,      53.184132, -3.119954996876529E+00,  2.988675286663915E-01,  3.919375827882741E-01, -7.256104648608637E-04, -9.560702562592310E-03, -2.695372052370275E-04,
2445520.500000000, A.D. 1983-Jul-05 00:00:00.0000,      54.183990, -3.123217335488878E+00,  2.510317907358454E-01,  3.905440609471001E-01, -5.792762388582013E-04, -9.573221355264018E-03, -2.878636046586317E-04,
2445525.500000000, A.D. 1983-Jul-10 00:00:00.0000,      54.183849, -3.125747298620134E+00,  2.031390334458854E-01,  3.890590294911443E-01, -4.326656320034814E-04, -9.583509162896102E-03, -3.061403541875639E-04,
2445530.500000000, A.D. 1983-Jul-15 00:00:00.0000,      54.183710, -3.127543584912208E+00,  1.552004285163912E-01,  3.874827471296188E-01, -2.858108931418325E-04, -9.591559339227000E-03, -3.243632688812947E-04,
2445535.500000000, A.D. 1983-Jul-20 00:00:00.0000,      54.183572, -3.128605054703844E+00,  1.072271798203995E-01,  3.858154935115868E-01, -1.387444515409562E-04, -9.597365670043491E-03, -3.425281578440794E-04,
2445540.500000000, A.D. 1983-Jul-25 00:00:00.0000,      54.183434, -3.128930730923070E+00,  5.923052121220761E-02,  3.840575692541597E-01,  8.501087053939746E-06, -9.600922377819442E-03, -3.606308248639990E-04,
2445545.500000000, A.D. 1983-Jul-30 00:00:00.0000,      54.183301, -3.128519799958595E+00,  1.122171433237432E-02,  3.822092959673335E-01,  1.558929449012365E-04, -9.602224126366138E-03, -3.786670691241539E-04,
2445550.500000000, A.D. 1983-Aug-04 00:00:00.0000,      54.183174, -3.127371612507845E+00, -3.678795361100909E-02,  3.802710162750968E-01,  3.033981770647525E-04, -9.601266025686752E-03, -3.966326859759235E-04,
2445555.500000000, A.D. 1983-Aug-09 00:00:00.0000,      54.183054, -3.125485684400807E+00, -8.478717208580998E-02,  3.782430938326087E-01,  4.509836762612648E-04, -9.598043637007451E-03, -4.145234677320324E-04,
2445560.500000000, A.D. 1983-Aug-14 00:00:00.0000,      54.182941, -3.122861697399715E+00, -1.327646095046545E-01,  3.761259133394164E-01,  5.986161776787839E-04, -9.592552977848258E-03, -4.323352044554170E-04,
2445565.500000000, A.D. 1983-Aug-19 00:00:00.0000,      54.182834, -3.119499499974578E+00, -1.807089155189892E-01,  3.739198805487381E-01,  7.462622638373130E-04, -9.584790527050278E-03, -4.500636847464037E-04,
2445570.500000000, A.D. 1983-Aug-24 00:00:00.0000,      54.182733, -3.115399108054123E+00, -2.286087233381391E-01,  3.716254222727902E-01,  8.938883695746673E-04, -9.574753229749189E-03, -4.677046965394514E-04,
2445575.500000000, A.D. 1983-Aug-29 00:00:00.0000,      54.182642, -3.110560705751398E+00, -2.764526520731376E-01,  3.692429863840899E-01,  1.041460787197627E-03, -9.562438502313780E-03, -4.852540279173117E-04,
